{"type": "FeatureCollection", "features": [ {"type": "Feature", "properties": {"norad_id": 38552, "name": "METEOSAT-10 (MSG-3)", "group": "weather", "lat": -0.36165806917208426, "lon": 56.53597247657313, "alt_km": 35787.77881676898, "timestamp": "2025-12-07T22:37:42.725565+00:00", "meta": {"OBJECT_NAME": "METEOSAT-10 (MSG-3)", "OBJECT_ID": "2012-035B", "EPOCH": "2025-12-07T01:39:02.807136", "MEAN_MOTION": 1.0027323, "ECCENTRICITY": 8.883e-05, "INCLINATION": 4.2152, "RA_OF_ASC_NODE": 61.7326, "ARG_OF_PERICENTER": 231.2003, "MEAN_ANOMALY": 168.0514, "EPHEMERIS_TYPE": 0, "CLASSIFICATION_TYPE": "U", "NORAD_CAT_ID": 38552, "ELEMENT_SET_NO": 999, "REV_AT_EPOCH": 4893, "BSTAR": 0, "MEAN_MOTION_DOT": -3e-08, "MEAN_MOTION_DDOT": 0}, "tle": {"line1": "1 38552U 12035B   25341.06878249 -.00000003  00000+0  00000+0 0  9995", "line2": "2 38552   4.2152  61.7326 0000888 231.2003 168.0514  1.00273230 48936"}}, "geometry": {"type": "Point", "coordinates": [56.53597247657313, -0.36165806917208426]}}, {"type": "Feature", "properties": {"norad_id": 38771, "name": "METOP-B", "group": "weather", "lat": 35.10861966883942, "lon": 25.81700052341491, "alt_km": 819.1335975019374, "timestamp": "2025-12-07T22:37:42.725577+00:00", "meta": {"OBJECT_NAME": "METOP-B", "OBJECT_ID": "2012-049A", "EPOCH": "2025-12-07T07:15:24.575328", "MEAN_MOTION": 14.21405376, "ECCENTRICITY": 0.00026843, "INCLINATION": 98.6806, "RA_OF_ASC_NODE": 31.3531, "ARG_OF_PERICENTER": 156.1748, "MEAN_ANOMALY": 203.9555, "EPHEMERIS_TYPE": 0, "CLASSIFICATION_TYPE": "U", "NORAD_CAT_ID": 38771, "ELEMENT_SET_NO": 999, "REV_AT_EPOCH": 68600, "BSTAR": 0.00015005458, "MEAN_MOTION_DOT": 2.84e-06, "MEAN_MOTION_DDOT": 0}, "tle": {"line1": "1 38771U 12049A   25341.30236777  .00000284  00000+0  15005-3 0  9999", "line2": "2 38771  98.6806  31.3531 0002684 156.1748 203.9555 14.21405376686005"}}, "geometry": {"type": "Point", "coordinates": [25.81700052341491, 35.10861966883942]}}, {"type": "Feature", "properties": {"norad_id": 39216, "name": "INSAT-3D", "group": "weather", "lat": 1.3967735726843038, "lon": -174.08787956913392, "alt_km": 35782.18074085784, "timestamp": "2025-12-07T22:37:42.725589+00:00", "meta": {"OBJECT_NAME": "INSAT-3D", "OBJECT_ID": "2013-038B", "EPOCH": "2025-12-07T07:24:05.786784", "MEAN_MOTION": 1.0027206, "ECCENTRICITY": 0.00017418, "INCLINATION": 1.4303, "RA_OF_ASC_NODE": 85.0487, "ARG_OF_PERICENTER": 160.3046, "MEAN_ANOMALY": 71.547, "EPHEMERIS_TYPE": 0, "CLASSIFICATION_TYPE": "U", "NORAD_CAT_ID": 39216, "ELEMENT_SET_NO": 999, "REV_AT_EPOCH": 4515, "BSTAR": 0, "MEAN_MOTION_DOT": -3.35e-06, "MEAN_MOTION_DDOT": 0}, "tle": {"line1": "1 39216U 13038B   25341.30840031 -.00000335  00000+0  00000+0 0  9990", "line2": "2 39216   1.4303  85.0487 0001741 160.3046  71.5470  1.00272060 45156"}}, "geometry": {"type": "Point", "coordinates": [-174.08787956913392, 1.3967735726843038]}}, {"type": "Feature", "properties": {"norad_id": 39260, "name": "FENGYUN 3C", "group": "weather", "lat": 20.96786476636916, "lon": -43.41932925183156, "alt_km": 849.7763946221203, "timestamp": "2025-12-07T22:37:42.725605+00:00", "meta": {"OBJECT_NAME": "FENGYUN 3C", "OBJECT_ID": "2013-052A", "EPOCH": "2025-12-07T05:33:57.473280", "MEAN_MOTION": 14.15693743, "ECCENTRICITY": 0.00139932, "INCLINATION": 98.4758, "RA_OF_ASC_NODE": 319.1804, "ARG_OF_PERICENTER": 212.4346, "MEAN_ANOMALY": 147.597, "EPHEMERIS_TYPE": 0, "CLASSIFICATION_TYPE": "U", "NORAD_CAT_ID": 39260, "ELEMENT_SET_NO": 999, "REV_AT_EPOCH": 63140, "BSTAR": 0.00012471285, "MEAN_MOTION_DOT": 2.04e-06, "MEAN_MOTION_DDOT": 0}, "tle": {"line1": "1 39260U 13052A   25341.23191520  .00000204  00000+0  12471-3 0  9992", "line2": "2 39260  98.4758 319.1804 0013993 212.4346 147.5970 14.15693743631406"}}, "geometry": {"type": "Point", "coordinates": [-43.41932925183156, 20.96786476636916]}}, {"type": "Feature", "properties": {"norad_id": 40069, "name": "METEOR-M 2", "group": "weather", "lat": -79.91362977591808, "lon": 82.60580437194429, "alt_km": 825.313573435501, "timestamp": "2025-12-07T22:37:42.725615+00:00", "meta": {"OBJECT_NAME": "METEOR-M 2", "OBJECT_ID": "2014-037A", "EPOCH": "2025-12-07T06:10:57.161856", "MEAN_MOTION": 14.21383258, "ECCENTRICITY": 0.00048214, "INCLINATION": 98.4897, "RA_OF_ASC_NODE": 319.0525, "ARG_OF_PERICENTER": 227.4415, "MEAN_ANOMALY": 132.6357, "EPHEMERIS_TYPE": 0, "CLASSIFICATION_TYPE": "U", "NORAD_CAT_ID": 40069, "ELEMENT_SET_NO": 999, "REV_AT_EPOCH": 59205, "BSTAR": 0.00014905469, "MEAN_MOTION_DOT": 2.84e-06, "MEAN_MOTION_DDOT": 0}, "tle": {"line1": "1 40069U 14037A   25341.25760604  .00000284  00000+0  14905-3 0  9994", "line2": "2 40069  98.4897 319.0525 0004821 227.4415 132.6357 14.21383258592056"}}, "geometry": {"type": "Point", "coordinates": [82.60580437194429, -79.91362977591808]}}, {"type": "Feature", "properties": {"norad_id": 40267, "name": "HIMAWARI-8", "group": "weather", "lat": 0.02860401772093634, "lon": -162.97176059922216, "alt_km": 35786.83961161657, "timestamp": "2025-12-07T22:37:42.725627+00:00", "meta": {"OBJECT_NAME": "HIMAWARI-8", "OBJECT_ID": "2014-060A", "EPOCH": "2025-12-07T05:44:37.813920", "MEAN_MOTION": 1.00269573, "ECCENTRICITY": 0.00013433, "INCLINATION": 0.051, "RA_OF_ASC_NODE": 137.6065, "ARG_OF_PERICENTER": 150.3064, "MEAN_ANOMALY": 15.179, "EPHEMERIS_TYPE": 0, "CLASSIFICATION_TYPE": "U", "NORAD_CAT_ID": 40267, "ELEMENT_SET_NO": 999, "REV_AT_EPOCH": 4083, "BSTAR": 0, "MEAN_MOTION_DOT": -2.71e-06, "MEAN_MOTION_DDOT": 0}, "tle": {"line1": "1 40267U 14060A   25341.23932655 -.00000271  00000+0  00000+0 0  9999", "line2": "2 40267   0.0510 137.6065 0001343 150.3064  15.1790  1.00269573 40836"}}, "geometry": {"type": "Point", "coordinates": [-162.97176059922216, 0.02860401772093634]}}, {"type": "Feature", "properties": {"norad_id": 40367, "name": "FENGYUN 2G", "group": "weather", "lat": 5.095861983843003, "lon": 155.95978452499418, "alt_km": 35792.81914514138, "timestamp": "2025-12-07T22:37:42.725640+00:00", "meta": {"OBJECT_NAME": "FENGYUN 2G", "OBJECT_ID": "2014-090A", "EPOCH": "2025-12-06T19:16:31.950048", "MEAN_MOTION": 1.00266143, "ECCENTRICITY": 0.00031469, "INCLINATION": 5.1526, "RA_OF_ASC_NODE": 75.1659, "ARG_OF_PERICENTER": 196.1642, "MEAN_ANOMALY": 193.3036, "EPHEMERIS_TYPE": 0, "CLASSIFICATION_TYPE": "U", "NORAD_CAT_ID": 40367, "ELEMENT_SET_NO": 999, "REV_AT_EPOCH": 4007, "BSTAR": 0, "MEAN_MOTION_DOT": -2.98e-06, "MEAN_MOTION_DDOT": 0}, "tle": {"line1": "1 40367U 14090A   25340.80314757 -.00000298  00000+0  00000+0 0  9991", "line2": "2 40367   5.1526  75.1659 0003146 196.1642 193.3036  1.00266143 40076"}}, "geometry": {"type": "Point", "coordinates": [155.95978452499418, 5.095861983843003]}}, {"type": "Feature", "properties": {"norad_id": 40732, "name": "METEOSAT-11 (MSG-4)", "group": "weather", "lat": -0.2739456540871587, "lon": 65.7521955847179, "alt_km": 35790.15479531522, "timestamp": "2025-12-07T22:37:42.725654+00:00", "meta": {"OBJECT_NAME": "METEOSAT-11 (MSG-4)", "OBJECT_ID": "2015-034A", "EPOCH": "2025-12-07T06:49:54.062400", "MEAN_MOTION": 1.00265783, "ECCENTRICITY": 9.749e-05, "INCLINATION": 2.7217, "RA_OF_ASC_NODE": 72.0176, "ARG_OF_PERICENTER": 119.5129, "MEAN_ANOMALY": 356.6402, "EPHEMERIS_TYPE": 0, "CLASSIFICATION_TYPE": "U", "NORAD_CAT_ID": 40732, "ELEMENT_SET_NO": 999, "REV_AT_EPOCH": 529, "BSTAR": 0, "MEAN_MOTION_DOT": 6.5e-07, "MEAN_MOTION_DDOT": 0}, "tle": {"line1": "1 40732U 15034A   25341.28465350  .00000065  00000+0  00000+0 0  9996", "line2": "2 40732   2.7217  72.0176 0000974 119.5129 356.6402  1.00265783  5292"}}, "geometry": {"type": "Point", "coordinates": [65.7521955847179, -0.2739456540871587]}}, {"type": "Feature", "properties": {"norad_id": 41105, "name": "ELEKTRO-L 2", "group": "weather", "lat": -3.1757428435273383, "lon": 42.06014542671979, "alt_km": 35796.64612983778, "timestamp": "2025-12-07T22:37:42.725666+00:00", "meta": {"OBJECT_NAME": "ELEKTRO-L 2", "OBJECT_ID": "2015-074A", "EPOCH": "2025-12-07T01:34:48.213120", "MEAN_MOTION": 1.00272049, "ECCENTRICITY": 0.00039152, "INCLINATION": 6.2111, "RA_OF_ASC_NODE": 72.8948, "ARG_OF_PERICENTER": 201.1648, "MEAN_ANOMALY": 171.2246, "EPHEMERIS_TYPE": 0, "CLASSIFICATION_TYPE": "U", "NORAD_CAT_ID": 41105, "ELEMENT_SET_NO": 999, "REV_AT_EPOCH": 3658, "BSTAR": 0, "MEAN_MOTION_DOT": -1.15e-06, "MEAN_MOTION_DDOT": 0}, "tle": {"line1": "1 41105U 15074A   25341.06583580 -.00000115  00000+0  00000+0 0  9994", "line2": "2 41105   6.2111  72.8948 0003915 201.1648 171.2246  1.00272049 36582"}}, "geometry": {"type": "Point", "coordinates": [42.06014542671979, -3.1757428435273383]}}, {"type": "Feature", "properties": {"norad_id": 41752, "name": "INSAT-3DR", "group": "weather", "lat": 0.06461875044634621, "lon": 130.28103038282347, "alt_km": 35833.326567964694, "timestamp": "2025-12-07T22:37:42.725678+00:00", "meta": {"OBJECT_NAME": "INSAT-3DR", "OBJECT_ID": "2016-054A", "EPOCH": "2025-12-07T03:42:49.480704", "MEAN_MOTION": 1.00269915, "ECCENTRICITY": 0.0014554, "INCLINATION": 0.0783, "RA_OF_ASC_NODE": 87.3338, "ARG_OF_PERICENTER": 182.3938, "MEAN_ANOMALY": 296.1754, "EPHEMERIS_TYPE": 0, "CLASSIFICATION_TYPE": "U", "NORAD_CAT_ID": 41752, "ELEMENT_SET_NO": 999, "REV_AT_EPOCH": 3389, "BSTAR": 0, "MEAN_MOTION_DOT": -7.2e-07, "MEAN_MOTION_DDOT": 0}, "tle": {"line1": "1 41752U 16054A   25341.15473936 -.00000072  00000+0  00000+0 0  9996", "line2": "2 41752   0.0783  87.3338 0014554 182.3938 296.1754  1.00269915 33894"}}, "geometry": {"type": "Point", "coordinates": [130.28103038282347, 0.06461875044634621]}}]}